[{"OBJECT_NAME":"IRIDIUM 165","OBJECT_ID":"2018-061D","EPOCH":"2026-03-09T12:28:22.404000","MEAN_MOTION":14.34217296,"ECCENTRICITY":0.00020877,"INCLINATION":86.3917,"RA_OF_ASC_NODE":98.4934,"ARG_OF_PERICENTER":96.9181,"MEAN_ANOMALY":263.2252,"EPHEMERIS_TYPE":0,"CLASSIFICATION_TYPE":"U","NORAD_CAT_ID":43572,"ELEMENT_SET_NO":999,"REV_AT_EPOCH":39910,"BSTAR":7.29473e-7,"MEAN_MOTION_DOT":2.2e-7,"MEAN_MOTION_DDOT":0},{"OBJECT_NAME":"CZ-6A DEB","OBJECT_ID":"2024-140GP","EPOCH":"2026-03-09T20:10:47.945280","MEAN_MOTION":14.46111658,"ECCENTRICITY":0.00857461,"INCLINATION":88.9751,"RA_OF_ASC_NODE":281.6901,"ARG_OF_PERICENTER":281.1498,"MEAN_ANOMALY":78.0076,"EPHEMERIS_TYPE":0,"CLASSIFICATION_TYPE":"U","NORAD_CAT_ID":60812,"ELEMENT_SET_NO":999,"REV_AT_EPOCH":8307,"BSTAR":0.0002467554,"MEAN_MOTION_DOT":9.37e-6,"MEAN_MOTION_DDOT":0}]
